NORAD_CAT_ID,OBJECT_NAME,OBJECT_TYPE,EPOCH,MEAN_MOTION,ECCENTRICITY,INCLINATION,RA_OF_ASC_NODE,ARG_OF_PERICENTER,MEAN_ANOMALY,BSTAR,MEAN_MOTION_DOT,MEAN_MOTION_DDOT,TLE_LINE0,TLE_LINE1,TLE_LINE2,SEMIMAJOR_AXIS,PERIOD,APOGEE,PERIGEE,DECAYED
55750.0,STARLINK-5573,PAYLOAD,2024-05-09 04:18:48,14.98335118,0.0003125,69.9982,132.5464,268.8933,91.1868,-1.3691e-05,-2.56e-06,0.0,0 STARLINK-5573,1 55750U 23028K   24130.17972421 -.00000256  00000-0 -13691-4 0  9999,2 55750  69.9982 132.5464 0003125 268.8933  91.1868 14.98335118 65751,6950.177,96.107,574.214,569.87,0.0
55750.0,STARLINK-5573,PAYLOAD,2024-05-09 10:43:20,14.98334695,0.0003068,69.9984,131.8737,266.9384,93.1424,-1.462e-05,-2.67e-06,0.0,0 STARLINK-5573,1 55750U 23028K   24130.44676355 -.00000267  00000-0 -14620-4 0  9991,2 55750  69.9984 131.8737 0003068 266.9384  93.1424 14.98334695 65796,6950.178,96.107,574.176,569.911,0.0
55750.0,STARLINK-5573,PAYLOAD,2024-05-09 17:07:52,14.98332706,0.0003064,69.9985,131.2003,267.7133,92.3675,-7.7232e-06,-1.85e-06,0.0,0 STARLINK-5573,1 55750U 23028K   24130.71380437 -.00000185  00000-0 -77232-5 0  9992,2 55750  69.9985 131.2003 0003064 267.7133  92.3675 14.98332706 65839,6950.185,96.107,574.179,569.92,0.0
55750.0,STARLINK-5573,PAYLOAD,2024-05-10 04:20:49,14.9832976,0.000309,69.9984,130.0219,268.9687,91.1118,4.0462e-05,3.9e-06,0.0,0 STARLINK-5573,1 55750U 23028K   24131.18112544  .00000390  00000-0  40462-4 0  9996,2 55750  69.9984 130.0219 0003090 268.9687  91.1118 14.98329760 65903,6950.194,96.107,574.206,569.911,0.0
55750.0,STARLINK-5573,PAYLOAD,2024-05-10 07:33:05,14.98330274,0.0003087,69.9983,129.6851,269.5853,90.4952,4.5377e-05,4.48e-06,0.0,0 STARLINK-5573,1 55750U 23028K   24131.31464508  .00000448  00000-0  45377-4 0  9995,2 55750  69.9983 129.6851 0003087 269.5853  90.4952 14.98330274 65928,6950.192,96.107,574.203,569.912,0.0
55750.0,STARLINK-5573,PAYLOAD,2024-05-10 17:09:53,14.9833028,0.0003083,69.9984,128.6751,269.9667,90.1139,4.0126e-05,3.86e-06,0.0,0 STARLINK-5573,1 55750U 23028K   24131.71520547  .00000386  00000-0  40126-4 0  9993,2 55750  69.9984 128.6751 0003083 269.9667  90.1139 14.98330280 65987,6950.192,96.107,574.2,569.914,0.0
55750.0,STARLINK-5573,PAYLOAD,2024-05-11 04:22:50,14.98333174,0.0003028,69.9985,127.4969,269.6338,90.4474,6.9397e-05,7.35e-06,0.0,0 STARLINK-5573,1 55750U 23028K   24132.18252415  .00000735  00000-0  69397-4 0  9990,2 55750  69.9985 127.4969 0003028 269.6338  90.4474 14.98333174 66056,6950.183,96.107,574.153,569.944,0.0
55750.0,STARLINK-5573,PAYLOAD,2024-05-11 09:11:13,14.98346215,0.0002891,69.9987,126.9922,267.5961,92.4867,0.00023589,2.724e-05,0.0,0 STARLINK-5573,1 55750U 23028K   24132.38279511  .00002724  00000-0  23589-3 0  9990,2 55750  69.9987 126.9922 0002891 267.5961  92.4867 14.98346215 66088,6950.143,96.106,574.017,569.998,0.0
55750.0,STARLINK-5573,PAYLOAD,2024-05-11 17:11:53,14.98343435,0.0002969,69.9985,126.15,272.3903,87.6916,0.00017023,1.939e-05,0.0,0 STARLINK-5573,1 55750U 23028K   24132.71659187  .00001939  00000-0  17023-3 0  9991,2 55750  69.9985 126.1500 0002969 272.3903  87.6916 14.98343435 66134,6950.151,96.106,574.08,569.953,0.0
55750.0,STARLINK-5573,PAYLOAD,2024-05-12 04:24:50,14.98339474,0.000298,69.9983,124.9704,270.9669,89.1149,0.00013771,1.551e-05,0.0,0 STARLINK-5573,1 55750U 23028K   24133.18391301  .00001551  00000-0  13771-3 0  9990,2 55750  69.9983 124.9704 0002980 270.9669  89.1149 14.98339474 66201,6950.164,96.106,574.1,569.957,0.0
55750.0,STARLINK-5573,PAYLOAD,2024-05-12 09:13:14,14.98340238,0.000302,69.9982,124.4661,269.8844,90.1969,0.00013751,1.549e-05,0.0,0 STARLINK-5573,1 55750U 23028K   24133.38419107  .00001549  00000-0  13751-3 0  9992,2 55750  69.9982 124.4661 0003020 269.8844  90.1969 14.98340238 66230,6950.161,96.106,574.125,569.927,0.0
55750.0,STARLINK-5573,PAYLOAD,2024-05-12 17:13:56,14.98322776,0.0001974,70.0017,123.6268,287.9431,72.1513,-1.3541e-05,-2.54e-06,0.0,0 STARLINK-5573,1 55750U 23028K   24133.71800969 -.00000254  00000-0 -13541-4 0  9991,2 55750  70.0017 123.6268 0001974 287.9431  72.1513 14.98322776 66282,6950.215,96.107,573.452,570.708,0.0
55750.0,STARLINK-5573,PAYLOAD,2024-05-13 09:15:17,14.98315751,0.0002919,69.9982,121.9417,272.9632,87.1193,-0.00022286,-2.75e-05,0.0,0 STARLINK-5573,1 55750U 23028K   24134.38562008 -.00002750  00000-0 -22286-3 0  9992,2 55750  69.9982 121.9417 0002919 272.9632  87.1193 14.98315751 66380,6950.237,96.108,574.131,570.073,0.0
55750.0,STARLINK-5573,PAYLOAD,2024-05-14 04:28:53,14.98323119,0.0003112,69.9979,119.9221,272.4255,87.6548,-3.3687e-05,-4.95e-06,0.0,0 STARLINK-5573,1 55750U 23028K   24135.18673480 -.00000495  00000-0 -33687-4 0  9990,2 55750  69.9979 119.9221 0003112 272.4255  87.6548 14.98323119 66508,6950.214,96.107,574.242,569.916,0.0
55750.0,STARLINK-5573,PAYLOAD,2024-05-14 09:17:17,14.98327882,0.0003009,69.9981,119.4172,271.4454,88.636,-3.7413e-06,-1.38e-06,0.0,0 STARLINK-5573,1 55750U 23028K   24135.38701198 -.00000138  00000-0 -37413-5 0  9996,2 55750  69.9981 119.4172 0003009 271.4454  88.6360 14.98327882 66533,6950.199,96.107,574.156,569.973,0.0
55750.0,STARLINK-5573,PAYLOAD,2024-05-14 15:41:50,14.98330604,0.0002994,69.9982,118.7435,272.1982,87.8834,6.1942e-06,-1.9e-07,0.0,0 STARLINK-5573,1 55750U 23028K   24135.65405126 -.00000019  00000-0  61942-5 0  9999,2 55750  69.9982 118.7435 0002994 272.1982  87.8834 14.98330604 66571,6950.191,96.107,574.137,569.975,0.0
55750.0,STARLINK-5573,PAYLOAD,2024-05-15 09:19:18,14.98332123,0.0002876,69.9983,116.8915,273.5429,86.5401,0.00050407,5.927e-05,0.0,0 STARLINK-5573,1 55750U 23028K   24136.38841398  .00005927  00000-0  50407-3 0  9999,2 55750  69.9983 116.8915 0002876 273.5429  86.5401 14.98332123 66680,6950.186,96.107,574.05,570.052,0.0
55750.0,STARLINK-5573,PAYLOAD,2024-05-16 04:32:54,14.98352711,0.0002776,70.0001,114.8721,271.7406,88.3435,0.00053508,6.301e-05,0.0,0 STARLINK-5573,1 55750U 23028K   24137.18952391  .00006301  00000-0  53508-3 0  9996,2 55750  70.0001 114.8721 0002776 271.7406  88.3435 14.98352711 66807,6950.123,96.106,573.917,570.058,0.0
55750.0,STARLINK-5573,PAYLOAD,2024-05-16 07:45:10,14.98359183,0.0002819,70.0,114.5351,273.4009,86.6827,0.00067476,7.973e-05,0.0,0 STARLINK-5573,1 55750U 23028K   24137.32304051  .00007973  00000-0  67476-3 0  9991,2 55750  70.0000 114.5351 0002819 273.4009  86.6827 14.98359183 66826,6950.103,96.105,573.927,570.008,0.0
55750.0,STARLINK-5573,PAYLOAD,2024-05-16 22:10:23,14.98343751,0.000183,70.0016,113.0224,265.6178,94.4772,0.00026996,3.131e-05,0.0,0 STARLINK-5573,1 55750U 23028K   24137.92388174  .00003131  00000-0  26996-3 0  9999,2 55750  70.0016 113.0224 0001830 265.6178  94.4772 14.98343751 66918,6950.15,96.106,573.287,570.743,0.0
55750.0,STARLINK-5573,PAYLOAD,2024-05-17 04:34:55,14.98341941,0.0002673,69.9998,112.3476,270.5125,89.5727,2.9982e-05,2.65e-06,0.0,0 STARLINK-5573,1 55750U 23028K   24138.19091780  .00000265  00000-0  29982-4 0  9997,2 55750  69.9998 112.3476 0002673 270.5125  89.5727 14.98341941 66956,6950.156,96.106,573.879,570.163,0.0
55750.0,STARLINK-5573,PAYLOAD,2024-05-17 07:47:11,14.9833911,0.0002464,70.0007,112.0132,266.0767,94.0111,-1.5506e-05,-2.78e-06,0.0,0 STARLINK-5573,1 55750U 23028K   24138.32444041 -.00000278  00000-0 -15506-4 0  9997,2 55750  70.0007 112.0132 0002464 266.0767  94.0111 14.98339110 66971,6950.165,96.106,573.742,570.317,0.0
55750.0,STARLINK-5573,PAYLOAD,2024-05-17 15:47:52,14.98337203,0.0002772,69.9992,111.1687,272.6477,87.4365,-2.4923e-05,-3.9e-06,0.0,0 STARLINK-5573,1 55750U 23028K   24138.65824130 -.00000390  00000-0 -24923-4 0  9992,2 55750  69.9992 111.1687 0002772 272.6477  87.4365 14.98337203 67024,6950.171,96.107,573.962,570.109,0.0
55750.0,STARLINK-5573,PAYLOAD,2024-05-18 07:49:12,14.98335332,0.000255,69.9992,109.4843,269.9427,90.1439,-0.00010691,-1.368e-05,0.0,0 STARLINK-5573,1 55750U 23028K   24139.32584241 -.00001368  00000-0 -10691-3 0  9995,2 55750  69.9992 109.4843 0002550 269.9427  90.1439 14.98335332 67121,6950.176,96.107,573.814,570.269,0.0
55750.0,STARLINK-5573,PAYLOAD,2024-05-18 15:49:52,14.98336578,0.0002562,69.9996,108.6427,273.7437,86.3429,-0.00011669,-1.485e-05,0.0,0 STARLINK-5573,1 55750U 23028K   24139.65964098 -.00001485  00000-0 -11669-3 0  9999,2 55750  69.9996 108.6427 0002562 273.7437  86.3429 14.98336578 67175,6950.173,96.107,573.818,570.257,0.0
55750.0,STARLINK-5573,PAYLOAD,2024-05-18 22:14:25,14.98329232,0.0002623,69.9993,107.9695,269.8598,90.2261,9.1469e-05,9.99e-06,0.0,0 STARLINK-5573,1 55750U 23028K   24139.92668081  .00000999  00000-0  91469-4 0  9996,2 55750  69.9993 107.9695 0002623 269.8598  90.2261 14.98329232 67215,6950.195,96.107,573.883,570.237,0.0
55750.0,STARLINK-5573,PAYLOAD,2024-05-19 07:51:13,14.98332245,0.0002619,69.9991,106.9602,269.1451,90.9408,8.6172e-05,9.35e-06,0.0,0 STARLINK-5573,1 55750U 23028K   24140.32724000  .00000935  00000-0  86172-4 0  9991,2 55750  69.9991 106.9602 0002619 269.1451  90.9408 14.98332245 67270,6950.186,96.107,573.871,570.231,0.0
55750.0,STARLINK-5573,PAYLOAD,2024-05-20 04:40:58,14.98329446,0.0002686,70.0,104.7718,272.2861,87.799,0.00012092,1.35e-05,0.0,0 STARLINK-5573,1 55750U 23028K   24141.19512349  .00001350  00000-0  12092-3 0  9999,2 55750  70.0000 104.7718 0002686 272.2861  87.7990 14.98329446 67406,6950.195,96.107,573.926,570.193,0.0
55750.0,STARLINK-5573,PAYLOAD,2024-05-20 07:53:14,14.98331458,0.0002677,69.9993,104.4354,271.9927,88.0925,0.00015513,1.759e-05,0.0,0 STARLINK-5573,1 55750U 23028K   24141.32864193  .00001759  00000-0  15513-3 0  9995,2 55750  69.9993 104.4354 0002677 271.9927  88.0925 14.98331458 67426,6950.188,96.107,573.914,570.193,0.0
55750.0,STARLINK-5573,PAYLOAD,2024-05-21 04:42:59,14.98329346,0.0002508,70.0,102.2492,260.1096,99.978,8.888e-05,9.68e-06,0.0,0 STARLINK-5573,1 55750U 23028K   24142.19652415  .00000968  00000-0  88880-4 0  9992,2 55750  70.0000 102.2492 0002508 260.1096  99.9780 14.98329346 67554,6950.195,96.107,573.803,570.317,0.0
